[{"OBJECT_NAME":"STARLINK-3892","OBJECT_ID":"2022-049AP","EPOCH":"2026-03-09T22:40:22.845504","MEAN_MOTION":15.08828199,"ECCENTRICITY":0.00013756,"INCLINATION":53.217,"RA_OF_ASC_NODE":57.9751,"ARG_OF_PERICENTER":119.3818,"MEAN_ANOMALY":240.7312,"EPHEMERIS_TYPE":0,"CLASSIFICATION_TYPE":"U","NORAD_CAT_ID":52488,"ELEMENT_SET_NO":999,"REV_AT_EPOCH":21229,"BSTAR":0.00013469529,"MEAN_MOTION_DOT":1.856e-5,"MEAN_MOTION_DDOT":0},{"OBJECT_NAME":"H-2A R\/B","OBJECT_ID":"2006-002B","EPOCH":"2026-03-09T22:32:18.942432","MEAN_MOTION":15.16426804,"ECCENTRICITY":0.00518947,"INCLINATION":98.2413,"RA_OF_ASC_NODE":215.9838,"ARG_OF_PERICENTER":240.1322,"MEAN_ANOMALY":119.4746,"EPHEMERIS_TYPE":0,"CLASSIFICATION_TYPE":"U","NORAD_CAT_ID":28932,"ELEMENT_SET_NO":999,"REV_AT_EPOCH":9447,"BSTAR":0.00057792596,"MEAN_MOTION_DOT":0.00011556,"MEAN_MOTION_DDOT":0}]
